IRIDIUM 166             
1 43570U 18061B   25332.98960778  .00000114  00000+0  33513-4 0  9998
2 43570  86.3966 140.4492 0002160  95.1547 264.9896 14.34219183384705
IRIDIUM 158             
1 43571U 18061C   25333.16720120  .00000070  00000+0  18081-4 0  9999
2 43571  86.3963 140.3847 0001800  89.6231 270.5171 14.34218482384692
IRIDIUM 165             
1 43572U 18061D   25333.19257512  .00000055  00000+0  12601-4 0  9998
2 43572  86.3965 140.4167 0002165  93.4914 266.6529 14.34217757384728
IRIDIUM 155             
1 43573U 18061E   25333.01498213  .00000116  00000+0  34353-4 0  9991
2 43573  86.3962 140.3701 0001862  96.2674 263.8734 14.34217951384662
IRIDIUM 154             
1 43574U 18061F   25333.20526007 -.00000007  00000+0 -96161-5 0  9993
2 43574  86.3971 140.4142 0001976  91.4934 268.6488 14.34217327384740
IRIDIUM 163             
1 43575U 18061G   25333.18623575  .00000107  00000+0  31146-4 0  9999
2 43575  86.3964 140.3439 0001925  88.1042 272.0374 14.34216365384719
IRIDIUM 156             
1 43576U 18061H   25332.88178670  .00000038  00000+0  65786-5 0  9998
2 43576  86.3964 140.4779 0001947  98.5867 261.5550 14.34217818384669
IRIDIUM 164             
1 43577U 18061J   25333.21161731  .00000113  00000+0  33218-4 0  9995
2 43577  86.3964 140.3774 0002179  93.3209 266.8236 14.34217095384751
